{"type":"FeatureCollection","metadata":{"generated":1745654421000,"url":"https://earthquake.usgs.gov/earthquakes/feed/v1.0/summary/1.0_hour.geojson","title":"USGS Magnitude 1.0+ Earthquakes, Past Hour","status":200,"api":"1.14.1","count":5},"features":[{"type":"Feature","properties":{"mag":1.27,"place":"2 km WNW of Anderson Springs, CA","time":1745654207940,"updated":1745654303087,"tz":null,"url":"https://earthquake.usgs.gov/earthquakes/eventpage/nc75171736","detail":"https://earthquake.usgs.gov/earthquakes/feed/v1.0/detail/nc75171736.geojson","felt":null,"cdi":null,"mmi":null,"alert":null,"status":"automatic","tsunami":0,"sig":25,"net":"nc","code":"75171736","ids":",nc75171736,","sources":",nc,","types":",nearby-cities,origin,phase-data,","nst":15,"dmin":0.01476,"rms":0.02,"gap":77,"magType":"md","type":"earthquake","title":"M 1.3 - 2 km WNW of Anderson Springs, CA"},"geometry":{"type":"Point","coordinates":[-122.718170166016,38.7804985046387,1.82000005245209]},"id":"nc75171736"},
{"type":"Feature","properties":{"mag":1.4,"place":"9 km NNW of Willow, Alaska","time":1745653926434,"updated":1745654047595,"tz":null,"url":"https://earthquake.usgs.gov/earthquakes/eventpage/ak0255bytg8z","detail":"https://earthquake.usgs.gov/earthquakes/feed/v1.0/detail/ak0255bytg8z.geojson","felt":null,"cdi":null,"mmi":null,"alert":null,"status":"automatic","tsunami":0,"sig":30,"net":"ak","code":"0255bytg8z","ids":",ak0255bytg8z,","sources":",ak,","types":",origin,phase-data,","nst":null,"dmin":null,"rms":0.66,"gap":null,"magType":"ml","type":"earthquake","title":"M 1.4 - 9 km NNW of Willow, Alaska"},"geometry":{"type":"Point","coordinates":[-150.0859,61.8304,33.3]},"id":"ak0255bytg8z"},
{"type":"Feature","properties":{"mag":2.53,"place":"1 km S of Magas Arriba, Puerto Rico","time":1745653555380,"updated":1745654381690,"tz":null,"url":"https://earthquake.usgs.gov/earthquakes/eventpage/pr71480293","detail":"https://earthquake.usgs.gov/earthquakes/feed/v1.0/detail/pr71480293.geojson","felt":null,"cdi":null,"mmi":null,"alert":null,"status":"reviewed","tsunami":0,"sig":98,"net":"pr","code":"71480293","ids":",pr71480293,","sources":",pr,","types":",origin,phase-data,","nst":9,"dmin":0.1012,"rms":0.19,"gap":182,"magType":"md","type":"earthquake","title":"M 2.5 - 1 km S of Magas Arriba, Puerto Rico"},"geometry":{"type":"Point","coordinates":[-66.7678333333333,18.0056666666667,14.97]},"id":"pr71480293"},
{"type":"Feature","properties":{"mag":2.31,"place":"6 km SSE of Maria Antonia, Puerto Rico","time":1745652213770,"updated":1745652686590,"tz":null,"url":"https://earthquake.usgs.gov/earthquakes/eventpage/pr71480288","detail":"https://earthquake.usgs.gov/earthquakes/feed/v1.0/detail/pr71480288.geojson","felt":null,"cdi":null,"mmi":null,"alert":null,"status":"reviewed","tsunami":0,"sig":82,"net":"pr","code":"71480288","ids":",pr71480288,","sources":",pr,","types":",origin,phase-data,","nst":7,"dmin":0.04573,"rms":0.07,"gap":235,"magType":"md","type":"earthquake","title":"M 2.3 - 6 km SSE of Maria Antonia, Puerto Rico"},"geometry":{"type":"Point","coordinates":[-66.8653333333333,17.9265,12.02]},"id":"pr71480288"},
{"type":"Feature","properties":{"mag":1.4,"place":"12 km WNW of Susitna, Alaska","time":1745651596851,"updated":1745651703164,"tz":null,"url":"https://earthquake.usgs.gov/earthquakes/eventpage/ak0255byl44l","detail":"https://earthquake.usgs.gov/earthquakes/feed/v1.0/detail/ak0255byl44l.geojson","felt":null,"cdi":null,"mmi":null,"alert":null,"status":"automatic","tsunami":0,"sig":30,"net":"ak","code":"0255byl44l","ids":",ak0255byl44l,","sources":",ak,","types":",origin,phase-data,","nst":null,"dmin":null,"rms":0.45,"gap":null,"magType":"ml","type":"earthquake","title":"M 1.4 - 12 km WNW of Susitna, Alaska"},"geometry":{"type":"Point","coordinates":[-150.7155,61.5959,65.2]},"id":"ak0255byl44l"}],"bbox":[-150.7155,17.9265,1.8200000524521,-66.767833333333,61.8304,65.2]}
